[{"OBJECT_NAME":"STARLINK-5118","OBJECT_ID":"2022-125AD","EPOCH":"2026-03-09T16:39:19.700064","MEAN_MOTION":15.08841557,"ECCENTRICITY":0.00011815,"INCLINATION":53.2175,"RA_OF_ASC_NODE":204.0339,"ARG_OF_PERICENTER":81.8503,"MEAN_ANOMALY":278.2624,"EPHEMERIS_TYPE":0,"CLASSIFICATION_TYPE":"U","NORAD_CAT_ID":53991,"ELEMENT_SET_NO":999,"REV_AT_EPOCH":18959,"BSTAR":3.2190284e-5,"MEAN_MOTION_DOT":2.25e-6,"MEAN_MOTION_DDOT":0},{"OBJECT_NAME":"OBJECT J","OBJECT_ID":"2023-091J","EPOCH":"2026-03-09T22:57:45.383328","MEAN_MOTION":15.13201377,"ECCENTRICITY":0.00147906,"INCLINATION":97.519,"RA_OF_ASC_NODE":123.4537,"ARG_OF_PERICENTER":127.2759,"MEAN_ANOMALY":232.9824,"EPHEMERIS_TYPE":0,"CLASSIFICATION_TYPE":"U","NORAD_CAT_ID":57174,"ELEMENT_SET_NO":999,"REV_AT_EPOCH":14862,"BSTAR":0.00032020689,"MEAN_MOTION_DOT":5.634e-5,"MEAN_MOTION_DDOT":0}]
